[{"OBJECT_NAME":"STARLINK-32255","OBJECT_ID":"2024-141V","EPOCH":"2026-03-09T17:01:50.346336","MEAN_MOTION":15.30197584,"ECCENTRICITY":0.00011069,"INCLINATION":53.1587,"RA_OF_ASC_NODE":242.494,"ARG_OF_PERICENTER":91.0152,"MEAN_ANOMALY":269.0975,"EPHEMERIS_TYPE":0,"CLASSIFICATION_TYPE":"U","NORAD_CAT_ID":60417,"ELEMENT_SET_NO":999,"REV_AT_EPOCH":8958,"BSTAR":-4.305564e-6,"MEAN_MOTION_DOT":-4.87e-6,"MEAN_MOTION_DDOT":0},{"OBJECT_NAME":"TEVEL2-2","OBJECT_ID":"2025-052K","EPOCH":"2026-03-09T15:33:48.895776","MEAN_MOTION":15.30343745,"ECCENTRICITY":0.0004693,"INCLINATION":97.3987,"RA_OF_ASC_NODE":324.77,"ARG_OF_PERICENTER":105.793,"MEAN_ANOMALY":254.3828,"EPHEMERIS_TYPE":0,"CLASSIFICATION_TYPE":"U","NORAD_CAT_ID":63219,"ELEMENT_SET_NO":999,"REV_AT_EPOCH":5485,"BSTAR":0.00069428,"MEAN_MOTION_DOT":0.00020339,"MEAN_MOTION_DDOT":0}]
